STARLINK-31685          
1 59578U 24076Q   26068.21099489 -.00001944  00000+0 -61184-4 0  9990
2 59578  43.0015  11.3381 0000191 282.1997  77.8834 15.27574062106435
TEVEL2-7                
1 63238U 25052AE  26068.66113295  .00019244  00000+0  69668-3 0  9998
2 63238  97.4054 324.3041 0008105 124.6830 235.5175 15.28414096 54803
